[{"OBJECT_NAME":"COSMOS 2566","OBJECT_ID":"2022-163C","EPOCH":"2026-03-09T21:48:06.708672","MEAN_MOTION":13.97695206,"ECCENTRICITY":0.0007804,"INCLINATION":67.1457,"RA_OF_ASC_NODE":343.8663,"ARG_OF_PERICENTER":202.0486,"MEAN_ANOMALY":158.0264,"EPHEMERIS_TYPE":0,"CLASSIFICATION_TYPE":"U","NORAD_CAT_ID":54383,"ELEMENT_SET_NO":999,"REV_AT_EPOCH":16669,"BSTAR":7.7007e-5,"MEAN_MOTION_DOT":3.3e-7,"MEAN_MOTION_DDOT":0},{"OBJECT_NAME":"COSMOS 1365","OBJECT_ID":"1982-043A","EPOCH":"2026-03-09T11:19:49.590336","MEAN_MOTION":13.89777385,"ECCENTRICITY":0.00411427,"INCLINATION":65.0675,"RA_OF_ASC_NODE":105.4034,"ARG_OF_PERICENTER":76.3851,"MEAN_ANOMALY":23.3906,"EPHEMERIS_TYPE":0,"CLASSIFICATION_TYPE":"U","NORAD_CAT_ID":13175,"ELEMENT_SET_NO":999,"REV_AT_EPOCH":22610,"BSTAR":1.5515593e-5,"MEAN_MOTION_DOT":-7.0e-7,"MEAN_MOTION_DDOT":0}]
